HST                     
1 20580U 90037B   21041.58098961  .00000432  00000-0  15210-4 0  9990
2 20580  28.4688 184.5042 0002785 132.9232 308.5171 15.09552827492061
POLAR                   
1 23802U 96013A   21040.13115457  .00000279  00000-0  00000-0 0  9996
2 23802  78.7073 246.9029 6109549 275.4675  22.1740  1.29846418119483
SWAS                    
1 25560U 98071A   21041.48521465  .00000156  00000-0  23117-4 0  9996
2 25560  69.8991 144.7044 0009434 322.4282  37.6214 14.94000651204794
CXO                     
1 25867U 99040B   21043.81763789  .00000445  00000-0  00000-0 0  9992
2 25867  57.8343 259.7912 8121790 226.3807   0.3345  0.37806548  9961
XMM-NEWTON              
1 25989U 99066A   21042.87696713  .00000102  00000-0  00000+0 0  9991
2 25989  70.9690 314.9635 6763766  91.4074   0.4093  0.50132335 27583
TERRA                   
1 25994U 99068A   21040.92034877  .00000053  00000-0  21810-4 0  9992
2 25994  98.1894 117.6086 0001365  94.8735 352.0188 14.57125523124773
CLUSTER II-FM7 (SAMBA)  
1 26410U 00041A   21043.08120878 -.00000176  00000-0  00000-0 0  9997
2 26410 132.4645 343.4979 4714684 189.2530 359.1707  0.44191937 11643
CLUSTER II-FM6 (SALSA)  
1 26411U 00041B   21043.14926097 -.00000265  00000-0  00000-0 0  9991
2 26411 132.9223 345.0957 6139590 194.3714 359.0908  0.44215196 11685
CLUSTER II-FM5 (RUMBA)  
1 26463U 00045A   21043.14678991 -.00000188  00000-0  00000+0 0  9992
2 26463 136.5602 344.9724 5715167 194.4503 359.1373  0.44215614 23987
CLUSTER II-FM8 (TANGO)  
1 26464U 00045B   21043.08034688 -.00000175  00000-0  00000-0 0  9992
2 26464 132.4601 343.4863 4711560 189.2578 359.0787  0.44219374 11652
ODIN                    
1 26702U 01007A   21041.04467864  .00000559  00000-0  40027-4 0  9998
2 26702  97.5444  59.8957 0011332 166.6046 193.5485 15.08306750 92634
TIMED                   
1 26998U 01055B   21041.49969647  .00000077  00000-0  12394-4 0  9994
2 26998  74.0724 179.2919 0001825 239.6492 120.4509 14.88266988 39956
RHESSI                  
1 27370U 02004A   21041.42647355  .00002275  00000-0  71618-4 0  9992
2 27370  38.0321 161.1587 0010650 122.2750 237.9054 15.34085631 50885
INTEGRAL                
1 27540U 02048A   21040.22992728  .00000307  00000-0  00000+0 0  9999
2 27540  60.5150  94.6004 8998381 297.4784   1.5246  0.37581984 19280
CORIOLIS                
1 27640U 03001A   21041.53501073  .00000005  00000-0  23081-4 0  9998
2 27640  98.7247  53.2991 0015190  73.7959  37.7584 14.19060755937183
SORCE                   
1 27651U 03004A   21041.18114115  .00000078  00000-0  22101-4 0  9993
2 27651  39.9961  84.1949 0023251 252.3791 107.4458 14.89233848979674
MOST                    
1 27843U 03031D   21040.90757089 -.00000004  00000-0  18482-4 0  9995
2 27843  98.7103  50.7295 0010898 125.4258 234.7938 14.20628288913319
SCISAT 1                
1 27858U 03036A   21041.49749940  .00000058  00000-0  13191-4 0  9998
2 27858  73.9320  75.1633 0009131 233.9110 126.1219 14.77328594942809
SWIFT                   
1 28485U 04047A   21040.67360623  .00000937  00000-0  33346-4 0  9994
2 28485  20.5559 163.9665 0010964 177.0010 183.0491 15.04853997889234
FORMOSAT-3 FM6          
1 29047U 06011A   21040.89529850  .00000181  00000-0  87250-4 0  9999
2 29047  71.9803 345.3435 0049807   9.8911 350.3193 14.28789372775223
FORMOSAT-3 FM1          
1 29048U 06011B   21041.33935226  .00000064  00000-0  41489-4 0  9992
2 29048  71.9645 255.0672 0044573 327.9437  31.8989 14.28753789777779
FORMOSAT-3 FM5          
1 29049U 06011C   21041.18755604  .00000090  00000-0  51573-4 0  9990
2 29049  72.0196  68.3794 0035242 351.1586   8.8925 14.28830360773535
FORMOSAT-3 FM3          
1 29050U 06011D   21041.47564557  .00000107  00000-0  32752-4 0  9996
2 29050  72.0153 189.5418 0051690 252.7882 106.7609 14.59014871791148
FORMOSAT-3 FM4          
1 29051U 06011E   21041.25172033  .00000036  00000-0  29896-4 0  9993
2 29051  72.0069 329.8423 0070118 234.5342 124.9238 14.28865512776151
FORMOSAT-3 FM2          
1 29052U 06011F   21041.44416421  .00000075  00000-0  45510-4 0  9991
2 29052  72.0342  44.3658 0041873 310.9613  48.7902 14.28971638774517
CLOUDSAT                
1 29107U 06016A   21040.86864424  .00000080  00000-0  25263-4 0  9991
2 29107  98.2628 353.6863 0001508  63.9130 296.2226 14.62334265787025
CALIPSO                 
1 29108U 06016B   21041.46682507  .00000099  00000-0  29053-4 0  9990
2 29108  98.2609 354.0569 0001303  85.2637 274.8713 14.62501722787123
HINODE (SOLAR-B)        
1 29479U 06041A   21041.02445135  .00000057  00000-0  19673-4 0  9996
2 29479  98.1540  56.8901 0016689 345.2163  14.8550 14.65123051768689
SJ-6C                   
1 29505U 06046A   21041.33994917  .00000788  00000-0  77300-4 0  9994
2 29505  97.8086  60.1285 0003529 341.6142  18.4961 14.95047470779152
SJ-6D                   
1 29506U 06046B   21041.50961839 -.00000375  00000-0 -30125-4 0  9999
2 29506  97.8276  60.4922 0003253  68.2281 291.9289 14.93570018778703
AGILE                   
1 31135U 07013A   21040.99110699  .00002608  00000-0  43857-4 0  9992
2 31135   2.4671 135.7857 0011924 289.9108  69.9662 15.33088050768557
AIM                     
1 31304U 07015A   21041.46455182  .00000788  00000-0  47195-4 0  9990
2 31304  97.8820 298.7876 0003616 264.4573  95.6245 15.14096617756695
FGRST (GLAST)           
1 33053U 08029A   21040.99521994  .00000512  00000-0  12431-4 0  9991
2 33053  25.5823 282.6065 0012052 236.2692 123.6695 15.11457592699310
WISE                    
1 36119U 09071A   21040.56940858  .00000864  00000-0  31731-4 0  9996
2 36119  97.3015  79.3267 0000876 240.7731 119.3422 15.30582992620088
SDO                     
1 36395U 10005A   21040.22355542 -.00000104  00000-0  00000-0 0  9993
2 36395  30.7336 117.3309 0001323 262.9620  97.3170  1.00267893 40478
CRYOSAT 2               
1 36508U 10013A   21040.89075991  .00000004  00000-0  15776-6 0  9998
2 36508  92.0206 165.1179 0008079 114.7243 245.4806 14.51905538574689
X-SAT                   
1 37389U 11015C   21041.44006204 -.00000061  00000-0 -81720-5 0  9998
2 37389  98.4029  92.9222 0013218 317.6255  42.3907 14.24386131510165
GCOM-W1 (SHIZUKU)       
1 38337U 12025A   21041.42369032  .00000027  00000-0  16085-4 0  9994
2 38337  98.2173 343.9695 0000771   8.0504 103.2065 14.57110963464656
NUSTAR                  
1 38358U 12031A   21041.40017970  .00000973  00000-0  27812-4 0  9993
2 38358   6.0275 340.4280 0011125  80.7674 279.3713 14.88446595471505
NEOSSAT                 
1 39089U 13009D   21041.11960046  .00000038  00000-0  28635-4 0  9996
2 39089  98.4498 243.9932 0010340 305.1774  54.8442 14.34545744416638
IRIS                    
1 39197U 13033A   21041.11244343  .00000125  00000-0  24047-4 0  9998
2 39197  97.9610 226.6746 0027690 178.7521 181.3764 14.78813758411223
HISAKI (SPRINT-A)       
1 39253U 13049A   21041.37508310  .00000111  00000-0  66510-4 0  9999
2 39253  29.7207  65.2831 0137369  29.7594 331.0710 13.55239411367343
CASSIOPE                
1 39265U 13055A   21041.17946326  .00003757  00000-0  10563-3 0  9995
2 39265  80.9651  65.6211 0652454 327.2673  28.9599 14.31245233381768
STSAT-3                 
1 39422U 13066G   21041.06089817 -.00000490  00000-0 -45282-4 0  9993
2 39422  97.4914  67.6613 0024371 120.8457 239.5170 14.89912808392516
SWARM B                 
1 39451U 13067A   21040.91102547  .00000380  00000-0  15106-4 0  9993
2 39451  87.7555 208.7409 0003511  72.2376 287.9252 15.21914194386074
SWARM A                 
1 39452U 13067B   21040.86461541  .00001252  00000-0  25400-4 0  9997
2 39452  87.3586  44.2407 0003011 103.2593 256.9001 15.45199467405835
SWARM C                 
1 39453U 13067C   21041.51217552  .00001177  00000-0  23819-4 0  9990
2 39453  87.3438  44.4779 0003043 103.2731 256.8866 15.45199096405932
BRITE-CA1 (TORONTO)     
1 40020U 14033L   21041.44212874  .00000105  00000-0  26077-4 0  9999
2 40020  97.7323 222.0756 0088056  33.9959 326.6845 14.66705403355652
OCO 2                   
1 40059U 14035A   21041.46818562  .00000017  00000-0  13749-4 0  9995
2 40059  98.2170 344.7362 0001052  95.1312 265.0007 14.57098509351697
BRITE-PL2 (HEWELIUSZ)   
1 40119U 14049B   21041.18087359  .00000123  00000-0  20960-4 0  9999
2 40119  97.8888 137.0264 0018466  55.2037 305.0912 14.84598639351056
RESURS P2               
1 40360U 14087A   21041.51141267  .00000805  00000-0  26784-4 0  9992
2 40360  97.2346 131.6234 0010874  60.1463 356.1677 15.33980903342809
MMS 1                   
1 40482U 15011A   21033.61118266 -.00001705  00000-0  00000+0 0  9999
2 40482  32.4110 118.7347 8461621  28.1404 358.5361  0.28555122 11877
MMS 2                   
1 40483U 15011B   21037.11301004 -.00002239  00000-0  00000+0 0  9996
2 40483  32.4141 118.7610 8454369  28.1377 358.2328  0.28552771 11861
MMS 3                   
1 40484U 15011C   21033.59470301 -.00001706  00000-0  00000+0 0  9990
2 40484  32.4397 118.6706 8466792  28.2768 356.8594  0.28547418 11847
MMS 4                   
1 40485U 15011D   21033.60817475 -.00001707  00000-0  00000+0 0  9991
2 40485  32.4348 118.6752 8466970  28.2818 358.2161  0.28554306 11849
ASTROSAT                
1 40930U 15052A   21041.43266281  .00000727  00000-0  12944-4 0  9999
2 40930   5.9972  85.9814 0008276  32.0653 327.9977 14.76369983290390
DAMPE                   
1 41173U 15078A   21041.53221333  .00000089  00000-0  65496-5 0  9999
2 41173  97.3414  36.2649 0015105 128.2728 346.3793 15.23958679286655
PISAT                   
1 41784U 16059B   21041.14537052  .00000081  00000-0  24568-4 0  9998
2 41784  97.9867  96.7610 0030595 284.5780  75.2030 14.63585790233673
HXMT (HUIYAN)           
1 42758U 17034A   21041.57082791  .00000228  00000-0  27795-4 0  9994
2 42758  43.0157 169.5145 0008219  81.6950  27.1923 15.09057302201849
FLYING LAPTOP           
1 42831U 17042G   21041.54409280  .00000773  00000-0  82920-4 0  9994
2 42831  97.4897 277.8601 0013418 205.0755 154.9835 14.91238478194776
PICSAT                  
1 43132U 18004X   21040.87838719  .00001535  00000-0  63844-4 0  9997
2 43132  97.4226 116.5425 0007810 303.2604  56.7885 15.25284877171235
ZHANGZHENG-1 (CSES)     
1 43194U 18015C   21041.54096360  .00001163  00000-0  55692-4 0  9999
2 43194  97.4597 169.9774 0013415   6.3007  57.7418 15.20880305167858
ICON                    
1 44628U 19068A   21040.91797779  .00000494  00000-0  28094-4 0  9995
2 44628  26.9896 284.1755 0018918  31.1980 328.9698 14.91848862 72923
SALSAT                  
1 46495U 20068K   21040.93721316 -.00000005  00000-0  41428-5 0  9993
2 46495  97.6836 339.2854 0018248 137.9557 222.3066 15.03344519 20179
